{
  "type": "FeatureCollection",
  "features": [
    {
      "type": "Feature",
      "properties": {
        "norad_id": 35616,
        "name": "IRIDIUM 33 DEB",
        "group": "iridium-33-debris",
        "lat": -48.00181967731111,
        "lon": -21.88858525670987,
        "alt_km": 637.7113926875891,
        "timestamp": "2025-12-20T14:38:02.354695+00:00",
        "meta_object_name": "IRIDIUM 33 DEB",
        "meta_object_id": "1997-051QN",
        "meta_epoch": "2025-12-19T06:26:26.767968",
        "meta_mean_motion": 14.81969913,
        "meta_eccentricity": 0.0011079,
        "meta_inclination": 86.3543,
        "meta_ra_of_asc_node": 342.7845,
        "meta_arg_of_pericenter": 141.4908,
        "meta_mean_anomaly": 218.7107,
        "meta_ephemeris_type": 0,
        "meta_classification_type": "U",
        "meta_norad_cat_id": 35616,
        "meta_element_set_no": 999,
        "meta_rev_at_epoch": 87671,
        "meta_bstar": 0.0011657,
        "meta_mean_motion_dot": 9.278e-05,
        "meta_mean_motion_ddot": 0,
        "tle_line1": "1 35616U 97051QN  25353.26836537  .00009278  00000+0  11657-2 0  9998",
        "tle_line2": "2 35616  86.3543 342.7845 0011079 141.4908 218.7107 14.81969913876716"
      },
      "geometry": {
        "type": "Point",
        "coordinates": [
          -21.88858525670987,
          -48.00181967731111
        ]
      }
    },
    {
      "type": "Feature",
      "properties": {
        "norad_id": 35618,
        "name": "IRIDIUM 33 DEB",
        "group": "iridium-33-debris",
        "lat": -39.65265388429256,
        "lon": -12.972319592676564,
        "alt_km": 707.6828620024107,
        "timestamp": "2025-12-20T14:38:02.354706+00:00",
        "meta_object_name": "IRIDIUM 33 DEB",
        "meta_object_id": "1997-051QQ",
        "meta_epoch": "2025-12-13T19:06:39.662496",
        "meta_mean_motion": 14.52305973,
        "meta_eccentricity": 0.00288889,
        "meta_inclination": 86.3427,
        "meta_ra_of_asc_node": 353.0427,
        "meta_arg_of_pericenter": 17.6332,
        "meta_mean_anomaly": 342.5869,
        "meta_ephemeris_type": 0,
        "meta_classification_type": "U",
        "meta_norad_cat_id": 35618,
        "meta_element_set_no": 999,
        "meta_rev_at_epoch": 65409,
        "meta_bstar": 0.0005678553,
        "meta_mean_motion_dot": 2.341e-05,
        "meta_mean_motion_ddot": 0,
        "tle_line1": "1 35618U 97051QQ  25347.79629239  .00002341  00000+0  56786-3 0  9997",
        "tle_line2": "2 35618  86.3427 353.0427 0028888  17.6332 342.5869 14.52305973654095"
      },
      "geometry": {
        "type": "Point",
        "coordinates": [
          -12.972319592676564,
          -39.65265388429256
        ]
      }
    },
    {
      "type": "Feature",
      "properties": {
        "norad_id": 35620,
        "name": "IRIDIUM 33 DEB",
        "group": "iridium-33-debris",
        "lat": -83.12794281384485,
        "lon": 65.7151959183702,
        "alt_km": 685.9962847811348,
        "timestamp": "2025-12-20T14:38:02.354716+00:00",
        "meta_object_name": "IRIDIUM 33 DEB",
        "meta_object_id": "1997-051QS",
        "meta_epoch": "2025-12-18T07:58:30.597312",
        "meta_mean_motion": 14.38231155,
        "meta_eccentricity": 0.01396071,
        "meta_inclination": 86.3909,
        "meta_ra_of_asc_node": 215.0948,
        "meta_arg_of_pericenter": 240.37,
        "meta_mean_anomaly": 118.3533,
        "meta_ephemeris_type": 0,
        "meta_classification_type": "U",
        "meta_norad_cat_id": 35620,
        "meta_element_set_no": 999,
        "meta_rev_at_epoch": 60046,
        "meta_bstar": 0.0042608437,
        "meta_mean_motion_dot": 0.00014532,
        "meta_mean_motion_ddot": 0,
        "tle_line1": "1 35620U 97051QS  25352.33229858  .00014532  00000+0  42608-2 0  9991",
        "tle_line2": "2 35620  86.3909 215.0948 0139607 240.3700 118.3533 14.38231155600467"
      },
      "geometry": {
        "type": "Point",
        "coordinates": [
          65.7151959183702,
          -83.12794281384485
        ]
      }
    },
    {
      "type": "Feature",
      "properties": {
        "norad_id": 35622,
        "name": "IRIDIUM 33 DEB",
        "group": "iridium-33-debris",
        "lat": 82.13463472170154,
        "lon": -71.5376059565358,
        "alt_km": 544.9948571318846,
        "timestamp": "2025-12-20T14:38:02.354726+00:00",
        "meta_object_name": "IRIDIUM 33 DEB",
        "meta_object_id": "1997-051QU",
        "meta_epoch": "2025-12-19T11:54:56.844000",
        "meta_mean_motion": 15.05406521,
        "meta_eccentricity": 0.0004384,
        "meta_inclination": 86.2024,
        "meta_ra_of_asc_node": 260.2722,
        "meta_arg_of_pericenter": 306.062,
        "meta_mean_anomaly": 227.6567,
        "meta_ephemeris_type": 0,
        "meta_classification_type": "U",
        "meta_norad_cat_id": 35622,
        "meta_element_set_no": 999,
        "meta_rev_at_epoch": 87461,
        "meta_bstar": 0.0026207,
        "meta_mean_motion_dot": 0.00037763,
        "meta_mean_motion_ddot": 0,
        "tle_line1": "1 35622U 97051QU  25353.49649125  .00037763  00000+0  26207-2 0  9992",
        "tle_line2": "2 35622  86.2024 260.2722 0004384 306.0620 227.6567 15.05406521874619"
      },
      "geometry": {
        "type": "Point",
        "coordinates": [
          -71.5376059565358,
          82.13463472170154
        ]
      }
    },
    {
      "type": "Feature",
      "properties": {
        "norad_id": 35628,
        "name": "IRIDIUM 33 DEB",
        "group": "iridium-33-debris",
        "lat": -68.61359840180491,
        "lon": -3.798930295282995,
        "alt_km": 669.4934734895651,
        "timestamp": "2025-12-20T14:38:02.354737+00:00",
        "meta_object_name": "IRIDIUM 33 DEB",
        "meta_object_id": "1997-051RA",
        "meta_epoch": "2025-12-19T19:18:41.055840",
        "meta_mean_motion": 14.67675819,
        "meta_eccentricity": 0.00097154,
        "meta_inclination": 86.3564,
        "meta_ra_of_asc_node": 5.9244,
        "meta_arg_of_pericenter": 316.1179,
        "meta_mean_anomaly": 43.9263,
        "meta_ephemeris_type": 0,
        "meta_classification_type": "U",
        "meta_norad_cat_id": 35628,
        "meta_element_set_no": 999,
        "meta_rev_at_epoch": 86550,
        "meta_bstar": 0.00086845214,
        "meta_mean_motion_dot": 4.965e-05,
        "meta_mean_motion_ddot": 0,
        "tle_line1": "1 35628U 97051RA  25353.80464185  .00004965  00000+0  86845-3 0  9997",
        "tle_line2": "2 35628  86.3564   5.9244 0009715 316.1179  43.9263 14.67675819865507"
      },
      "geometry": {
        "type": "Point",
        "coordinates": [
          -3.798930295282995,
          -68.61359840180491
        ]
      }
    },
    {
      "type": "Feature",
      "properties": {
        "norad_id": 35631,
        "name": "IRIDIUM 33 DEB",
        "group": "iridium-33-debris",
        "lat": -27.73938154494848,
        "lon": 15.671639715827675,
        "alt_km": 747.5198926910407,
        "timestamp": "2025-12-20T14:38:02.354747+00:00",
        "meta_object_name": "IRIDIUM 33 DEB",
        "meta_object_id": "1997-051RD",
        "meta_epoch": "2025-12-20T01:46:23.422080",
        "meta_mean_motion": 14.47329545,
        "meta_eccentricity": 0.00192479,
        "meta_inclination": 86.3662,
        "meta_ra_of_asc_node": 17.8175,
        "meta_arg_of_pericenter": 96.1931,
        "meta_mean_anomaly": 326.0143,
        "meta_ephemeris_type": 0,
        "meta_classification_type": "U",
        "meta_norad_cat_id": 35631,
        "meta_element_set_no": 999,
        "meta_rev_at_epoch": 87303,
        "meta_bstar": 0.00024996785,
        "meta_mean_motion_dot": 9.37e-06,
        "meta_mean_motion_ddot": 0,
        "tle_line1": "1 35631U 97051RD  25354.07388220  .00000937  00000+0  24997-3 0  9991",
        "tle_line2": "2 35631  86.3662  17.8175 0019247  96.1931 326.0143 14.47329545873036"
      },
      "geometry": {
        "type": "Point",
        "coordinates": [
          15.671639715827675,
          -27.73938154494848
        ]
      }
    },
    {
      "type": "Feature",
      "properties": {
        "norad_id": 35680,
        "name": "IRIDIUM 33 DEB",
        "group": "iridium-33-debris",
        "lat": -80.16276113974465,
        "lon": -5.112271332233366,
        "alt_km": 731.3543907142848,
        "timestamp": "2025-12-20T14:38:02.354757+00:00",
        "meta_object_name": "IRIDIUM 33 DEB",
        "meta_object_id": "1997-051RJ",
        "meta_epoch": "2025-12-17T20:16:19.922592",
        "meta_mean_motion": 14.21000805,
        "meta_eccentricity": 0.01505036,
        "meta_inclination": 86.1025,
        "meta_ra_of_asc_node": 19.2625,
        "meta_arg_of_pericenter": 262.1515,
        "meta_mean_anomaly": 279.7609,
        "meta_ephemeris_type": 0,
        "meta_classification_type": "U",
        "meta_norad_cat_id": 35680,
        "meta_element_set_no": 999,
        "meta_rev_at_epoch": 60773,
        "meta_bstar": 0.0028027984,
        "meta_mean_motion_dot": 6.829e-05,
        "meta_mean_motion_ddot": 0,
        "tle_line1": "1 35680U 97051RJ  25351.84467503  .00006829  00000+0  28028-2 0  9993",
        "tle_line2": "2 35680  86.1025  19.2625 0150503 262.1515 279.7609 14.21000805607731"
      },
      "geometry": {
        "type": "Point",
        "coordinates": [
          -5.112271332233366,
          -80.16276113974465
        ]
      }
    }
  ]
}